{"type": "FeatureCollection", "features": [{"type": "Feature", "properties": {"norad_id": 25590, "name": "COSMOS 2361", "group": "musson", "lat": -39.25578283039363, "lon": -20.163434507236964, "alt_km": 979.8185633009734, "timestamp": "2025-12-10T14:53:37.362603+00:00", "meta": {"OBJECT_NAME": "COSMOS 2361", "OBJECT_ID": "1998-076A", "EPOCH": "2025-12-10T03:11:59.178048", "MEAN_MOTION": 13.7321707, "ECCENTRICITY": 0.00300565, "INCLINATION": 82.9338, "RA_OF_ASC_NODE": 346.0143, "ARG_OF_PERICENTER": 273.1666, "MEAN_ANOMALY": 159.6616, "EPHEMERIS_TYPE": 0, "CLASSIFICATION_TYPE": "U", "NORAD_CAT_ID": 25590, "ELEMENT_SET_NO": 999, "REV_AT_EPOCH": 35075, "BSTAR": 8.1259576e-05, "MEAN_MOTION_DOT": 9e-07, "MEAN_MOTION_DDOT": 0}, "tle": {"line1": "1 25590U 98076A   25344.13332382  .00000090  00000+0  81260-4 0  9993", "line2": "2 25590  82.9338 346.0143 0030056 273.1666 159.6616 13.73217070350757"}}, "geometry": {"type": "Point", "coordinates": [-20.163434507236964, -39.25578283039363]}}, {"type": "Feature", "properties": {"norad_id": 26818, "name": "COSMOS 2378", "group": "musson", "lat": 25.52889031484947, "lon": 4.69572123113357, "alt_km": 1007.5237130419782, "timestamp": "2025-12-10T14:53:37.362621+00:00", "meta": {"OBJECT_NAME": "COSMOS 2378", "OBJECT_ID": "2001-023A", "EPOCH": "2025-12-10T04:37:33.598272", "MEAN_MOTION": 13.74141691, "ECCENTRICITY": 0.00322625, "INCLINATION": 82.9273, "RA_OF_ASC_NODE": 1.6136, "ARG_OF_PERICENTER": 212.0946, "MEAN_ANOMALY": 218.5089, "EPHEMERIS_TYPE": 0, "CLASSIFICATION_TYPE": "U", "NORAD_CAT_ID": 26818, "ELEMENT_SET_NO": 999, "REV_AT_EPOCH": 22888, "BSTAR": 5.5549909e-05, "MEAN_MOTION_DOT": 6.7e-07, "MEAN_MOTION_DDOT": 0}, "tle": {"line1": "1 26818U 01023A   25344.19274998  .00000067  00000+0  55550-4 0  9994", "line2": "2 26818  82.9273   1.6136 0032262 212.0946 218.5089 13.74141691228882"}}, "geometry": {"type": "Point", "coordinates": [4.69572123113357, 25.52889031484947]}}, {"type": "Feature", "properties": {"norad_id": 27436, "name": "COSMOS 2389", "group": "musson", "lat": -44.86099353533836, "lon": 135.627230973879, "alt_km": 1020.4954599071507, "timestamp": "2025-12-10T14:53:37.362632+00:00", "meta": {"OBJECT_NAME": "COSMOS 2389", "OBJECT_ID": "2002-026A", "EPOCH": "2025-12-10T07:26:14.999712", "MEAN_MOTION": 13.75154242, "ECCENTRICITY": 0.0047672, "INCLINATION": 82.9501, "RA_OF_ASC_NODE": 308.7835, "ARG_OF_PERICENTER": 67.3427, "MEAN_ANOMALY": 60.52, "EPHEMERIS_TYPE": 0, "CLASSIFICATION_TYPE": "U", "NORAD_CAT_ID": 27436, "ELEMENT_SET_NO": 999, "REV_AT_EPOCH": 18115, "BSTAR": 9.3607748e-05, "MEAN_MOTION_DOT": 1.06e-06, "MEAN_MOTION_DDOT": 0}, "tle": {"line1": "1 27436U 02026A   25344.30989583  .00000106  00000+0  93608-4 0  9991", "line2": "2 27436  82.9501 308.7835 0047672  67.3427  60.5200 13.75154242181151"}}, "geometry": {"type": "Point", "coordinates": [135.627230973879, -44.86099353533836]}}, {"type": "Feature", "properties": {"norad_id": 27818, "name": "COSMOS 2398", "group": "musson", "lat": -19.107269087422782, "lon": 96.71734902126093, "alt_km": 992.5179062076568, "timestamp": "2025-12-10T14:53:37.362642+00:00", "meta": {"OBJECT_NAME": "COSMOS 2398", "OBJECT_ID": "2003-023A", "EPOCH": "2025-12-10T05:55:28.000704", "MEAN_MOTION": 13.72385361, "ECCENTRICITY": 0.0032495, "INCLINATION": 82.9484, "RA_OF_ASC_NODE": 274.5352, "ARG_OF_PERICENTER": 118.4682, "MEAN_ANOMALY": 34.9541, "EPHEMERIS_TYPE": 0, "CLASSIFICATION_TYPE": "U", "NORAD_CAT_ID": 27818, "ELEMENT_SET_NO": 999, "REV_AT_EPOCH": 12782, "BSTAR": 0.0001012312, "MEAN_MOTION_DOT": 1.08e-06, "MEAN_MOTION_DDOT": 0}, "tle": {"line1": "1 27818U 03023A   25344.24685186  .00000108  00000+0  10123-3 0  9990", "line2": "2 27818  82.9484 274.5352 0032495 118.4682  34.9541 13.72385361127829"}}, "geometry": {"type": "Point", "coordinates": [96.71734902126093, -19.107269087422782]}}, {"type": "Feature", "properties": {"norad_id": 28380, "name": "COSMOS 2407", "group": "musson", "lat": 4.0526503227146815, "lon": -145.03682913490314, "alt_km": 962.8001947312805, "timestamp": "2025-12-10T14:53:37.362653+00:00", "meta": {"OBJECT_NAME": "COSMOS 2407", "OBJECT_ID": "2004-028A", "EPOCH": "2025-12-10T04:59:28.906080", "MEAN_MOTION": 13.76313279, "ECCENTRICITY": 0.00404077, "INCLINATION": 82.961, "RA_OF_ASC_NODE": 214.7671, "ARG_OF_PERICENTER": 61.7124, "MEAN_ANOMALY": 59.7146, "EPHEMERIS_TYPE": 0, "CLASSIFICATION_TYPE": "U", "NORAD_CAT_ID": 28380, "ELEMENT_SET_NO": 999, "REV_AT_EPOCH": 7388, "BSTAR": 7.4513391e-05, "MEAN_MOTION_DOT": 8.9e-07, "MEAN_MOTION_DDOT": 0}, "tle": {"line1": "1 28380U 04028A   25344.20797345  .00000089  00000+0  74513-4 0  9990", "line2": "2 28380  82.9610 214.7671 0040407  61.7124  59.7146 13.76313279 73883"}}, "geometry": {"type": "Point", "coordinates": [-145.03682913490314, 4.0526503227146815]}}, {"type": "Feature", "properties": {"norad_id": 28521, "name": "COSMOS 2414", "group": "musson", "lat": -0.11293334899278532, "lon": 6.276434446296307, "alt_km": 914.2772305504586, "timestamp": "2025-12-10T14:53:37.362663+00:00", "meta": {"OBJECT_NAME": "COSMOS 2414", "OBJECT_ID": "2005-002A", "EPOCH": "2025-12-10T07:06:38.954880", "MEAN_MOTION": 13.87902486, "ECCENTRICITY": 0.00407522, "INCLINATION": 82.9493, "RA_OF_ASC_NODE": 186.5077, "ARG_OF_PERICENTER": 146.5508, "MEAN_ANOMALY": 213.8242, "EPHEMERIS_TYPE": 0, "CLASSIFICATION_TYPE": "U", "NORAD_CAT_ID": 28521, "ELEMENT_SET_NO": 999, "REV_AT_EPOCH": 5761, "BSTAR": 7.054888e-05, "MEAN_MOTION_DOT": 1e-06, "MEAN_MOTION_DDOT": 0}, "tle": {"line1": "1 28521U 05002A   25344.29628420  .00000100  00000+0  70549-4 0  9995", "line2": "2 28521  82.9493 186.5077 0040752 146.5508 213.8242 13.87902486 57615"}}, "geometry": {"type": "Point", "coordinates": [6.276434446296307, -0.11293334899278532]}}, {"type": "Feature", "properties": {"norad_id": 32052, "name": "COSMOS 2429", "group": "musson", "lat": 50.37639345126044, "lon": -6.57061670671876, "alt_km": 947.7684273773502, "timestamp": "2025-12-10T14:53:37.362672+00:00", "meta": {"OBJECT_NAME": "COSMOS 2429", "OBJECT_ID": "2007-038A", "EPOCH": "2025-12-10T02:25:30.365760", "MEAN_MOTION": 13.75148997, "ECCENTRICITY": 0.00393686, "INCLINATION": 82.9802, "RA_OF_ASC_NODE": 345.2542, "ARG_OF_PERICENTER": 45.0578, "MEAN_ANOMALY": 315.376, "EPHEMERIS_TYPE": 0, "CLASSIFICATION_TYPE": "U", "NORAD_CAT_ID": 32052, "ELEMENT_SET_NO": 999, "REV_AT_EPOCH": 91566, "BSTAR": 6.9225607e-05, "MEAN_MOTION_DOT": 8.2e-07, "MEAN_MOTION_DDOT": 0}, "tle": {"line1": "1 32052U 07038A   25344.10104590  .00000082  00000+0  69226-4 0  9996", "line2": "2 32052  82.9802 345.2542 0039368  45.0578 315.3760 13.75148997915662"}}, "geometry": {"type": "Point", "coordinates": [-6.57061670671876, 50.37639345126044]}}, {"type": "Feature", "properties": {"norad_id": 35635, "name": "COSMOS 2454", "group": "musson", "lat": -34.46933912565291, "lon": -4.8791184693499545, "alt_km": 945.7132873326545, "timestamp": "2025-12-10T14:53:37.362682+00:00", "meta": {"OBJECT_NAME": "COSMOS 2454", "OBJECT_ID": "2009-039A", "EPOCH": "2025-12-10T00:48:50.279328", "MEAN_MOTION": 13.89928013, "ECCENTRICITY": 0.00204798, "INCLINATION": 82.9554, "RA_OF_ASC_NODE": 170.6962, "ARG_OF_PERICENTER": 80.9665, "MEAN_ANOMALY": 79.7408, "EPHEMERIS_TYPE": 0, "CLASSIFICATION_TYPE": "U", "NORAD_CAT_ID": 35635, "ELEMENT_SET_NO": 999, "REV_AT_EPOCH": 83112, "BSTAR": 5.7382206e-05, "MEAN_MOTION_DOT": 8.7e-07, "MEAN_MOTION_DDOT": 0}, "tle": {"line1": "1 35635U 09039A   25344.03391527  .00000087  00000+0  57382-4 0  9994", "line2": "2 35635  82.9554 170.6962 0020479  80.9665  79.7408 13.89928013831128"}}, "geometry": {"type": "Point", "coordinates": [-4.8791184693499545, -34.46933912565291]}}, {"type": "Feature", "properties": {"norad_id": 36519, "name": "COSMOS 2463", "group": "musson", "lat": 34.02086765206204, "lon": 33.053834792963144, "alt_km": 995.9031658941467, "timestamp": "2025-12-10T14:53:37.362691+00:00", "meta": {"OBJECT_NAME": "COSMOS 2463", "OBJECT_ID": "2010-017A", "EPOCH": "2025-12-10T06:19:07.082688", "MEAN_MOTION": 13.71648936, "ECCENTRICITY": 0.00348383, "INCLINATION": 82.9615, "RA_OF_ASC_NODE": 28.5325, "ARG_OF_PERICENTER": 295.1783, "MEAN_ANOMALY": 135.5261, "EPHEMERIS_TYPE": 0, "CLASSIFICATION_TYPE": "U", "NORAD_CAT_ID": 36519, "ELEMENT_SET_NO": 999, "REV_AT_EPOCH": 78203, "BSTAR": 6.6418601e-05, "MEAN_MOTION_DOT": 7.5e-07, "MEAN_MOTION_DDOT": 0}, "tle": {"line1": "1 36519U 10017A   25344.26327642  .00000075  00000+0  66419-4 0  9994", "line2": "2 36519  82.9615  28.5325 0034838 295.1783 135.5261 13.71648936782034"}}, "geometry": {"type": "Point", "coordinates": [33.053834792963144, 34.02086765206204]}}]}